GLOBALSTAR M023 [+]     
1 25621U 99004A   23281.36947167 -.00000179  00000+0 -42099-3 0  9992
2 25621  52.0094 134.5989 0009410 194.9735 335.8536 12.62442525137691
GLOBALSTAR M040 [-]     
1 25622U 99004B   23281.34409417 -.00000074  00000+0  16513-3 0  9997
2 25622  51.9896 137.9304 0001388  93.3792  77.8547 12.61956418137245
GLOBALSTAR M036 [-]     
1 25623U 99004C   23281.57873205 -.00000071  00000+0  16437-3 0  9995
2 25623  51.9966  68.1258 0010215 313.2687 125.9301 11.86553980105660
GLOBALSTAR M022 [-]     
1 25649U 99012A   23281.62365844 -.00000091  00000+0 -49468-4 0  9997
2 25649  52.0026 169.6782 0003351  38.2840 331.8916 12.02470381102089
GLOBALSTAR M041 [-]     
1 25650U 99012B   23281.61189300 -.00000137  00000+0 -66989-3 0  9996
2 25650  52.0046  32.3305 0002283 166.4898 193.6000 11.96646844104340
GLOBALSTAR M046 [-]     
1 25651U 99012C   23281.32790282 -.00000189  00000+0 -11093-2 0  9994
2 25651  52.0037 143.1666 0003055  91.9131  80.5413 12.09378550108901
